{"type":"FeatureCollection","features":[{"type":"Feature","properties":{"streetId":"ST-073","usrn":"44305999","name":"HAWTHORN GROVE","village":"Waltham Chase"},"geometry":{"type":"MultiLineString","coordinates":[[[-1.19851,50.93583],[-1.19824,50.93617],[-1.19825,50.93629],[-1.19807,50.93633]],[[-1.19807,50.93633],[-1.19774,50.93637],[-1.19758,50.93646]],[[-1.19856,50.93527],[-1.19852,50.93559]],[[-1.19852,50.93559],[-1.19851,50.93583]],[[-1.1986,50.93518],[-1.19856,50.93527]]]}},{"type":"Feature","properties":{"streetId":"ST-062","usrn":"44305483","name":"BIDDENFIELD LANE","village":"Shedfield"},"geometry":{"type":"MultiLineString","coordinates":[[[-1.21196,50.90809],[-1.21196,50.90925],[-1.21174,50.9095],[-1.21109,50.90994],[-1.21083,50.9104],[-1.20952,50.91093],[-1.20903,50.91139],[-1.20865,50.91157],[-1.20789,50.91174],[-1.20663,50.9119],[-1.20626,50.91204]],[[-1.21035,50.90255],[-1.20951,50.90365],[-1.20943,50.90398],[-1.20973,50.90449],[-1.21072,50.90516],[-1.21111,50.90556]],[[-1.21181,50.90642],[-1.21137,50.9071],[-1.21145,50.90725],[-1.21186,50.90755],[-1.21196,50.90809]],[[-1.20626,50.91204],[-1.20514,50.91264],[-1.20426,50.91289]],[[-1.21111,50.90556],[-1.2117,50.90617],[-1.21181,50.90642]],[[-1.21084,50.90205],[-1.21035,50.90255]],[[-1.21074,50.90162],[-1.21084,50.90205]]]}},{"type":"Feature","properties":{"streetId":"ST-063","usrn":"44305695","name":"CHASE GARDENS","village":"Waltham Chase"},"geometry":{"type":"MultiLineString","coordinates":[[[-1.20098,50.93485],[-1.2016,50.93485]]]}},{"type":"Feature","properties":{"streetId":"ST-077","usrn":"44306230","name":"PARK DRIVE","village":"Waltham Chase"},"geometry":{"type":"MultiLineString","coordinates":[[[-1.20108,50.93231],[-1.2016,50.93231]]]}},{"type":"Feature","properties":{"streetId":"ST-049","usrn":"44303173","name":"BEAUCROFT ROAD FOOTPATH","village":"Waltham Chase"},"geometry":{"type":"MultiLineString","coordinates":[[[-1.19823,50.93222],[-1.19811,50.9324],[-1.1981,50.93275]]]}},{"type":"Feature","properties":{"streetId":"ST-064","usrn":"44305721","name":"MORRELL CLOSE","village":"Waltham Chase"},"geometry":{"type":"MultiLineString","coordinates":[[[-1.20253,50.93195],[-1.20308,50.93194]]]}},{"type":"Feature","properties":{"streetId":"ST-056","usrn":"44304762","name":"GRAVEL HILL","village":"Shirrell Heath"},"geometry":{"type":"MultiLineString","coordinates":[[[-1.18634,50.92556],[-1.18438,50.92763]],[[-1.18414,50.92789],[-1.18357,50.92848]],[[-1.18357,50.92848],[-1.18308,50.92897]],[[-1.18438,50.92763],[-1.18414,50.92789]]]}},{"type":"Feature","properties":{"streetId":"ST-069","usrn":"44305967","name":"SANDY HILL CLOSE","village":"Waltham Chase"},"geometry":{"type":"MultiLineString","coordinates":[[[-1.20556,50.93457],[-1.20541,50.93448],[-1.20535,50.93429],[-1.20538,50.93409],[-1.20551,50.93395]],[[-1.20555,50.93379],[-1.20575,50.93332]],[[-1.20572,50.93502],[-1.20559,50.93549]],[[-1.20556,50.93457],[-1.2063,50.93448]],[[-1.20645,50.93505],[-1.20572,50.93502]],[[-1.20557,50.93494],[-1.20556,50.93457]],[[-1.20551,50.93395],[-1.20555,50.93379]],[[-1.20572,50.93502],[-1.20557,50.93494]],[[-1.20662,50.93506],[-1.20645,50.93505]],[[-1.2063,50.93448],[-1.20628,50.93442]],[[-1.20575,50.93332],[-1.20572,50.93332]]]}},{"type":"Feature","properties":{"streetId":"ST-001","usrn":"44301731","name":"CLEWERS LANE","village":"Waltham Chase"},"geometry":{"type":"MultiLineString","coordinates":[[[-1.20449,50.93851],[-1.20574,50.9384]],[[-1.20282,50.93868],[-1.20361,50.9386]],[[-1.2021,50.93876],[-1.20282,50.93868]],[[-1.20384,50.93857],[-1.20449,50.93851]],[[-1.20149,50.93883],[-1.2021,50.93876]],[[-1.20361,50.9386],[-1.20384,50.93857]]]}},{"type":"Feature","properties":{"streetId":"ST-068","usrn":"44305959","name":"LUDWELLS CLOSE","village":"Waltham Chase"},"geometry":{"type":"MultiLineString","coordinates":[[[-1.19984,50.939],[-1.19993,50.93926]],[[-1.19993,50.93926],[-1.19997,50.93933]]]}},{"type":"Feature","properties":{"streetId":"ST-005","usrn":"44301812","name":"UPPER CHURCH ROAD","village":"Shedfield"},"geometry":{"type":"MultiLineString","coordinates":[[[-1.19804,50.91698],[-1.19541,50.91744]],[[-1.19988,50.91665],[-1.19804,50.91698]],[[-1.20025,50.91658],[-1.19988,50.91665]]]}},{"type":"Feature","properties":{"streetId":"ST-037","usrn":"44302753","name":"CURDRIDGE LANE","village":"Waltham Chase"},"geometry":{"type":"MultiLineString","coordinates":[[[-1.20662,50.93577],[-1.20826,50.93545],[-1.20927,50.93489],[-1.21026,50.93458],[-1.21085,50.93456],[-1.21221,50.93499]],[[-1.20095,50.93556],[-1.20138,50.93563],[-1.20231,50.93566]],[[-1.20425,50.93573],[-1.20557,50.93578]],[[-1.20239,50.93566],[-1.20336,50.9357]],[[-1.20585,50.93579],[-1.20662,50.93577]],[[-1.20352,50.9357],[-1.20425,50.93573]],[[-1.20557,50.93578],[-1.20585,50.93579]],[[-1.20336,50.9357],[-1.20352,50.9357]],[[-1.20231,50.93566],[-1.20239,50.93566]]]}},{"type":"Feature","properties":{"streetId":"ST-042","usrn":"44303060","name":"SMITHS LANE","village":"Shirrell Heath"},"geometry":{"type":"MultiLineString","coordinates":[[[-1.1912,50.92249],[-1.19029,50.92196]],[[-1.19174,50.92291],[-1.1912,50.92249]],[[-1.19197,50.92264],[-1.1912,50.92249]]]}},{"type":"Feature","properties":{"streetId":"ST-075","usrn":"44306001","name":"HAZEL CLOSE","village":"Waltham Chase"},"geometry":{"type":"MultiLineString","coordinates":[[[-1.19636,50.93386],[-1.19742,50.93399]],[[-1.1973,50.93415],[-1.19709,50.93436]],[[-1.19742,50.93399],[-1.1973,50.93415]]]}},{"type":"Feature","properties":{"streetId":"ST-051","usrn":"44303209","name":"CHASE FARM CLOSE","village":"Waltham Chase"},"geometry":{"type":"MultiLineString","coordinates":[[[-1.20109,50.93189],[-1.20073,50.93189],[-1.20039,50.9318],[-1.19969,50.93179],[-1.19956,50.93184],[-1.19943,50.93207]],[[-1.19858,50.9322],[-1.19919,50.93219],[-1.19943,50.93207]],[[-1.19943,50.93207],[-1.19986,50.93229]],[[-1.19836,50.93216],[-1.19858,50.9322]]]}},{"type":"Feature","properties":{"streetId":"ST-032","usrn":"44302715","name":"BISHOPS LANE","village":"Shirrell Heath"},"geometry":{"type":"MultiLineString","coordinates":[[[-1.18157,50.9229],[-1.18014,50.92379],[-1.17771,50.9269]],[[-1.18255,50.9223],[-1.18157,50.9229]]]}},{"type":"Feature","properties":{"streetId":"ST-048","usrn":"44303131","name":"BEAUCROFT ROAD","village":"Waltham Chase"},"geometry":{"type":"MultiLineString","coordinates":[[[-1.20106,50.93285],[-1.1981,50.9328]],[[-1.1981,50.9328],[-1.19794,50.9328]]]}},{"type":"Feature","properties":{"streetId":"ST-003","usrn":"44301797","name":"HIGH STREET","village":"Shirrell Heath"},"geometry":{"type":"MultiLineString","coordinates":[[[-1.19771,50.9154],[-1.19545,50.9174]],[[-1.1891,50.92305],[-1.18787,50.92418]],[[-1.19137,50.92101],[-1.19029,50.92196]],[[-1.18737,50.92463],[-1.18634,50.92556]],[[-1.19362,50.91901],[-1.19261,50.91991]],[[-1.19461,50.91814],[-1.19362,50.91901]],[[-1.19541,50.91744],[-1.19461,50.91814]],[[-1.19261,50.91991],[-1.19188,50.92058]],[[-1.19029,50.92196],[-1.18977,50.92244]],[[-1.19184,50.92062],[-1.19137,50.92101]],[[-1.1895,50.92268],[-1.1891,50.92305]],[[-1.18787,50.92418],[-1.18748,50.92453]],[[-1.18964,50.92256],[-1.1895,50.92268]],[[-1.18977,50.92244],[-1.18964,50.92256]],[[-1.18748,50.92453],[-1.18737,50.92463]],[[-1.19188,50.92058],[-1.19184,50.92062]],[[-1.19545,50.9174],[-1.19541,50.91744]]]}},{"type":"Feature","properties":{"streetId":"ST-030","usrn":"44302469","name":"LINDEN CLOSE","village":"Waltham Chase"},"geometry":{"type":"MultiLineString","coordinates":[[[-1.19889,50.93431],[-1.19992,50.93435],[-1.201,50.93431]]]}},{"type":"Feature","properties":{"streetId":"ST-045","usrn":"44303128","name":"RED LEAVES","village":"Waltham Chase"},"geometry":{"type":"MultiLineString","coordinates":[[[-1.20196,50.93159],[-1.20189,50.93108]]]}},{"type":"Feature","properties":{"streetId":"ST-019","usrn":"44302446","name":"TWYNHAMS HILL","village":"Shirrell Heath"},"geometry":{"type":"MultiLineString","coordinates":[[[-1.19029,50.92196],[-1.18928,50.92151],[-1.18752,50.92093],[-1.18634,50.92087]],[[-1.18332,50.92073],[-1.18057,50.92059]],[[-1.18634,50.92087],[-1.18455,50.92079]],[[-1.18455,50.92079],[-1.18332,50.92073]]]}},{"type":"Feature","properties":{"streetId":"ST-035","usrn":"44302730","name":"CHASE GROVE","village":"Waltham Chase"},"geometry":{"type":"MultiLineString","coordinates":[[[-1.20343,50.93465],[-1.20336,50.9357]],[[-1.2024,50.93392],[-1.2033,50.93396],[-1.20344,50.93412],[-1.20346,50.93433]],[[-1.20102,50.93375],[-1.20224,50.9339]],[[-1.20343,50.93465],[-1.20268,50.93465]],[[-1.20346,50.93433],[-1.20343,50.93465]],[[-1.20224,50.9339],[-1.2024,50.93392]]]}},{"type":"Feature","properties":{"streetId":"ST-020","usrn":"44302447","name":"WINTERS ROAD","village":"Shirrell Heath"},"geometry":{"type":"MultiLineString","coordinates":[[[-1.18634,50.92087],[-1.18564,50.92282]],[[-1.1853,50.92378],[-1.18502,50.92441]],[[-1.18553,50.92312],[-1.18539,50.92355]],[[-1.18564,50.92282],[-1.18553,50.92312]],[[-1.18539,50.92355],[-1.1853,50.92378]]]}},{"type":"Feature","properties":{"streetId":"ST-014","usrn":"44301978","name":"LUDWELLS LANE","village":"Waltham Chase"},"geometry":{"type":"MultiLineString","coordinates":[[[-1.19303,50.9391],[-1.19334,50.939],[-1.19426,50.93929],[-1.1947,50.93936]],[[-1.1947,50.93936],[-1.19555,50.93947]]]}},{"type":"Feature","properties":{"streetId":"ST-057","usrn":"44304767","name":"BOTLEY ROAD","village":"Shedfield"},"geometry":{"type":"MultiLineString","coordinates":[[[-1.2076,50.91409],[-1.20426,50.91289]],[[-1.20426,50.91289],[-1.20103,50.91172]],[[-1.21006,50.91567],[-1.21155,50.91678],[-1.21239,50.91731]],[[-1.22885,50.91757],[-1.22719,50.91725],[-1.22622,50.91717],[-1.22545,50.91717]],[[-1.21776,50.91859],[-1.21823,50.91859],[-1.21895,50.9185],[-1.2204,50.91821]],[[-1.21239,50.91731],[-1.21293,50.91747],[-1.21491,50.91787]],[[-1.23234,50.91822],[-1.23319,50.91836],[-1.23459,50.91841]],[[-1.22263,50.91765],[-1.22456,50.91728]],[[-1.21625,50.91809],[-1.2173,50.91853],[-1.21776,50.91859]],[[-1.23045,50.9179],[-1.22885,50.91757]],[[-1.20828,50.91444],[-1.2092,50.91507]],[[-1.23045,50.9179],[-1.23174,50.91813]],[[-1.22149,50.91792],[-1.22263,50.91765]],[[-1.2092,50.91507],[-1.20996,50.9156]],[[-1.2204,50.91821],[-1.22134,50.91795]],[[-1.21527,50.91793],[-1.21625,50.91809]],[[-1.22456,50.91728],[-1.22545,50.91717]],[[-1.20828,50.91444],[-1.2076,50.91409]],[[-1.20091,50.91167],[-1.20021,50.91145]],[[-1.23174,50.91813],[-1.23234,50.91822]],[[-1.21491,50.91787],[-1.21527,50.91793]],[[-1.22134,50.91795],[-1.22149,50.91792]],[[-1.20996,50.9156],[-1.21006,50.91567]],[[-1.20103,50.91172],[-1.20091,50.91167]]]}},{"type":"Feature","properties":{"streetId":"ST-013","usrn":"44301977","name":"EVELYN CLOSE","village":"Waltham Chase"},"geometry":{"type":"MultiLineString","coordinates":[[[-1.19984,50.939],[-1.19979,50.93854],[-1.20034,50.93843]]]}},{"type":"Feature","properties":{"streetId":"ST-058","usrn":"44305138","name":"WINCHESTER ROAD","village":"Shedfield"},"geometry":{"type":"MultiLineString","coordinates":[[[-1.20022,50.91891],[-1.20017,50.92132]],[[-1.20029,50.91441],[-1.20025,50.91658]],[[-1.20025,50.91658],[-1.20022,50.91831]],[[-1.20035,50.91312],[-1.20029,50.91441]],[[-1.20014,50.92144],[-1.20001,50.92185],[-1.19945,50.92264]],[[-1.19951,50.92381],[-1.19988,50.92423],[-1.20072,50.92475]],[[-1.20021,50.91145],[-1.20036,50.91172],[-1.20037,50.91262]],[[-1.19945,50.92264],[-1.19936,50.92289],[-1.19936,50.92329],[-1.19951,50.92381]],[[-1.20022,50.91831],[-1.20022,50.91891]],[[-1.20037,50.91262],[-1.20036,50.9129]],[[-1.20036,50.9129],[-1.20035,50.91312]],[[-1.20017,50.92132],[-1.20014,50.92144]]]}},{"type":"Feature","properties":{"streetId":"ST-067","usrn":"44305928","name":"HORDERS WOOD GARDENS","village":"Waltham Chase"},"geometry":{"type":"MultiLineString","coordinates":[[[-1.20387,50.93901],[-1.20383,50.93934],[-1.20423,50.93936]],[[-1.20384,50.93857],[-1.20389,50.93891]],[[-1.20389,50.93891],[-1.20387,50.93901]]]}},{"type":"Feature","properties":{"streetId":"ST-033","usrn":"44302724","name":"BROOKLYNN CLOSE","village":"Waltham Chase"},"geometry":{"type":"MultiLineString","coordinates":[[[-1.20324,50.93028],[-1.20298,50.93035],[-1.20241,50.93033],[-1.20223,50.93007]],[[-1.20223,50.93007],[-1.20205,50.92989],[-1.2012,50.92992]],[[-1.2041,50.93055],[-1.20343,50.9304],[-1.20324,50.93028]],[[-1.2041,50.93055],[-1.20449,50.93006]],[[-1.20379,50.93106],[-1.20407,50.93068]],[[-1.20407,50.93068],[-1.2041,50.93055]]]}},{"type":"Feature","properties":{"streetId":"ST-072","usrn":"44305997","name":"POPES STILE","village":"Waltham Chase"},"geometry":{"type":"MultiLineString","coordinates":[[[-1.2021,50.93876],[-1.20231,50.9391]]]}},{"type":"Feature","properties":{"streetId":"ST-017","usrn":"44302444","name":"BLACK HORSE LANE","village":"Shedfield"},"geometry":{"type":"MultiLineString","coordinates":[[[-1.1926,50.92366],[-1.19142,50.92418],[-1.19112,50.92464],[-1.19064,50.92501],[-1.19052,50.92549],[-1.19002,50.92669]],[[-1.19643,50.92387],[-1.1957,50.9239],[-1.19412,50.92361]],[[-1.19841,50.92309],[-1.19713,50.92358],[-1.1967,50.92381],[-1.19643,50.92387]],[[-1.19412,50.92361],[-1.19354,50.9235],[-1.19286,50.92357]],[[-1.19945,50.92264],[-1.1987,50.92295]],[[-1.1987,50.92295],[-1.19841,50.92309]],[[-1.19286,50.92357],[-1.1926,50.92366]]]}},{"type":"Feature","properties":{"streetId":"ST-031","usrn":"44302656","name":"TURKEY ISLAND LANE","village":"Shedfield"},"geometry":{"type":"MultiLineString","coordinates":[[[-1.18526,50.9194],[-1.18455,50.92079]]]}},{"type":"Feature","properties":{"streetId":"ST-009","usrn":"44301973","name":"MEADOW GARDENS","village":"Waltham Chase"},"geometry":{"type":"MultiLineString","coordinates":[[[-1.20386,50.93729],[-1.20358,50.93738],[-1.20346,50.93749],[-1.20343,50.93763],[-1.20357,50.93797]],[[-1.20357,50.93797],[-1.20365,50.93819],[-1.20361,50.9386]]]}},{"type":"Feature","properties":{"streetId":"ST-059","usrn":"44305339","name":"WINCHESTER ROAD","village":"Waltham Chase"},"geometry":{"type":"MultiLineString","coordinates":[[[-1.20316,50.94374],[-1.2036,50.94608]],[[-1.20149,50.93883],[-1.20236,50.94084]],[[-1.20246,50.94109],[-1.20297,50.94282]],[[-1.20072,50.92475],[-1.201,50.92515],[-1.20117,50.92635]],[[-1.20095,50.93556],[-1.20094,50.93706]],[[-1.20094,50.93706],[-1.20129,50.93832]],[[-1.20117,50.92635],[-1.20124,50.92742]],[[-1.2013,50.92825],[-1.20125,50.92931]],[[-1.20297,50.94282],[-1.20316,50.94374]],[[-1.20116,50.93036],[-1.20112,50.93125]],[[-1.20124,50.92742],[-1.2013,50.92825]],[[-1.20098,50.93485],[-1.20095,50.93556]],[[-1.20105,50.93308],[-1.20102,50.93366]],[[-1.20125,50.92935],[-1.2012,50.92992]],[[-1.20102,50.93375],[-1.201,50.93431]],[[-1.201,50.93431],[-1.20098,50.93485]],[[-1.20129,50.93832],[-1.20149,50.93883]],[[-1.20108,50.93231],[-1.20107,50.9327]],[[-1.20112,50.93125],[-1.20111,50.93158]],[[-1.20109,50.93189],[-1.20108,50.93222]],[[-1.20111,50.93158],[-1.20109,50.93189]],[[-1.20236,50.94084],[-1.20246,50.94109]],[[-1.20106,50.93285],[-1.20105,50.93308]],[[-1.2012,50.92992],[-1.20118,50.93011]],[[-1.20107,50.9327],[-1.20106,50.93285]],[[-1.20117,50.93022],[-1.20116,50.93036]],[[-1.20117,50.93022],[-1.20118,50.93011]],[[-1.20102,50.93366],[-1.20102,50.93375]],[[-1.20108,50.93222],[-1.20108,50.93231]],[[-1.20125,50.92931],[-1.20125,50.92935]]]}},{"type":"Feature","properties":{"streetId":"ST-016","usrn":"44302443","name":"SOLOMONS LANE","village":"Shirrell Heath"},"geometry":{"type":"MultiLineString","coordinates":[[[-1.18915,50.92655],[-1.18845,50.92646],[-1.18759,50.9262],[-1.18634,50.92556]],[[-1.19288,50.92698],[-1.19176,50.92693],[-1.19059,50.92677]],[[-1.19442,50.92704],[-1.19288,50.92698]],[[-1.19059,50.92677],[-1.19002,50.92669]],[[-1.19002,50.92669],[-1.18955,50.92662]],[[-1.18955,50.92662],[-1.18915,50.92655]]]}},{"type":"Feature","properties":{"streetId":"ST-023","usrn":"44302450","name":"NIGHTINGALE CRESCENT","village":"Shirrell Heath"},"geometry":{"type":"MultiLineString","coordinates":[[[-1.19362,50.91901],[-1.19336,50.91897],[-1.19272,50.9193],[-1.19251,50.91961],[-1.19254,50.91987]],[[-1.19254,50.91987],[-1.19261,50.91991]]]}},{"type":"Feature","properties":{"streetId":"ST-036","usrn":"44302737","name":"CLAYHILL CLOSE","village":"Waltham Chase"},"geometry":{"type":"MultiLineString","coordinates":[[[-1.20538,50.93673],[-1.20537,50.93638],[-1.20577,50.93633]],[[-1.20611,50.93699],[-1.20578,50.93697],[-1.20538,50.93673]],[[-1.20577,50.93633],[-1.20585,50.93579]],[[-1.20622,50.93631],[-1.20577,50.93633]]]}},{"type":"Feature","properties":{"streetId":"ST-027","usrn":"44302454","name":"ST ANNES LANE","village":"Shedfield"},"geometry":{"type":"MultiLineString","coordinates":[[[-1.2071,50.91684],[-1.20659,50.91712],[-1.20365,50.9184]],[[-1.20365,50.9184],[-1.20219,50.91935],[-1.2011,50.92049]],[[-1.20996,50.9156],[-1.2087,50.91598],[-1.2079,50.91642]],[[-1.2011,50.92049],[-1.20033,50.92126],[-1.20017,50.92132]],[[-1.20785,50.91645],[-1.2071,50.91684]],[[-1.2079,50.91642],[-1.20785,50.91645]]]}},{"type":"Feature","properties":{"streetId":"ST-043","usrn":"44303126","name":"CLUBHOUSE LANE","village":"Waltham Chase"},"geometry":{"type":"MultiLineString","coordinates":[[[-1.20417,50.93427],[-1.20431,50.93358],[-1.2042,50.9329]],[[-1.20485,50.93253],[-1.20429,50.93279],[-1.2042,50.9329]],[[-1.20419,50.9346],[-1.20417,50.93427]],[[-1.20513,50.9324],[-1.20485,50.93253]]]}},{"type":"Feature","properties":{"streetId":"ST-021","usrn":"44302448","name":"HEARNE GARDENS","village":"Shirrell Heath"},"geometry":{"type":"MultiLineString","coordinates":[[[-1.18577,50.92539],[-1.18601,50.92527]]]}},{"type":"Feature","properties":{"streetId":"ST-039","usrn":"44302797","name":"HEATHLANDS","village":"Shedfield"},"geometry":{"type":"MultiLineString","coordinates":[[[-1.19809,50.91372],[-1.1973,50.91435],[-1.19661,50.91503],[-1.1966,50.91512]],[[-1.19926,50.91402],[-1.19771,50.9154]],[[-1.20035,50.91312],[-1.19962,50.91371]],[[-1.19678,50.91519],[-1.19758,50.91536]],[[-1.19926,50.91402],[-1.19869,50.91386]],[[-1.19962,50.91371],[-1.19926,50.91402]],[[-1.19869,50.91386],[-1.19823,50.91372]],[[-1.1966,50.91512],[-1.19627,50.91501]],[[-1.19789,50.9136],[-1.19809,50.91372]],[[-1.1966,50.91512],[-1.19678,50.91519]],[[-1.19758,50.91536],[-1.19771,50.9154]],[[-1.19823,50.91372],[-1.19809,50.91372]]]}},{"type":"Feature","properties":{"streetId":"ST-044","usrn":"44303127","name":"ASHLEY GARDENS","village":"Waltham Chase"},"geometry":{"type":"MultiLineString","coordinates":[[[-1.20253,50.93195],[-1.20257,50.93241]],[[-1.20273,50.93241],[-1.20332,50.93242]],[[-1.20249,50.9316],[-1.20253,50.93195]],[[-1.20257,50.93241],[-1.20273,50.93241]]]}},{"type":"Feature","properties":{"streetId":"ST-002","usrn":"44301732","name":"SANDY LANE","village":"Waltham Chase"},"geometry":{"type":"MultiLineString","coordinates":[[[-1.21076,50.92992],[-1.20995,50.93038],[-1.20826,50.93178],[-1.20709,50.93312]],[[-1.20662,50.93506],[-1.20679,50.93461],[-1.20655,50.93388],[-1.20679,50.93343]],[[-1.21076,50.92992],[-1.21269,50.92885]],[[-1.20662,50.93577],[-1.20655,50.93555],[-1.20662,50.93506]],[[-1.20709,50.93312],[-1.20679,50.93343]]]}},{"type":"Feature","properties":{"streetId":"ST-029","usrn":"44302468","name":"THE POPLARS","village":"Waltham Chase"},"geometry":{"type":"MultiLineString","coordinates":[[[-1.2042,50.9329],[-1.20362,50.93306]]]}},{"type":"Feature","properties":{"streetId":"ST-071","usrn":"44305990","name":"UNDERWOOD CLOSE","village":"Waltham Chase"},"geometry":{"type":"MultiLineString","coordinates":[[[-1.20452,50.93863],[-1.20462,50.93897],[-1.20484,50.93895]],[[-1.20452,50.93863],[-1.20477,50.9386]],[[-1.20449,50.93851],[-1.20452,50.93863]]]}},{"type":"Feature","properties":{"streetId":"ST-053","usrn":"44303569","name":"CULVERLANDS CLOSE FOOTPATH","village":"Shedfield"},"geometry":{"type":"MultiLineString","coordinates":[[[-1.19957,50.91368],[-1.19929,50.91366]]]}},{"type":"Feature","properties":{"streetId":"ST-004","usrn":"44301811","name":"CHURCH ROAD","village":"Shedfield"},"geometry":{"type":"MultiLineString","coordinates":[[[-1.20828,50.91444],[-1.20702,50.91469],[-1.20594,50.915]],[[-1.20577,50.91505],[-1.20379,50.91564]],[[-1.20252,50.91598],[-1.20346,50.91573]],[[-1.20235,50.91603],[-1.20159,50.91623]],[[-1.20036,50.91655],[-1.20087,50.91642]],[[-1.20087,50.91642],[-1.20135,50.9163]],[[-1.20346,50.91573],[-1.20379,50.91564]],[[-1.20135,50.9163],[-1.20159,50.91623]],[[-1.20252,50.91598],[-1.20235,50.91603]],[[-1.20594,50.915],[-1.20577,50.91505]],[[-1.20025,50.91658],[-1.20036,50.91655]]]}},{"type":"Feature","properties":{"streetId":"ST-065","usrn":"44305745","name":"FRANKLYN CLOSE","village":"Waltham Chase"},"geometry":{"type":"MultiLineString","coordinates":[[[-1.20302,50.9316],[-1.20302,50.93104]],[[-1.20302,50.93104],[-1.20264,50.93104]]]}},{"type":"Feature","properties":{"streetId":"ST-012","usrn":"44301976","name":"HILLCREST GARDENS","village":"Waltham Chase"},"geometry":{"type":"MultiLineString","coordinates":[[[-1.20444,50.93679],[-1.20443,50.93647],[-1.20422,50.93615],[-1.20425,50.93573]]]}},{"type":"Feature","properties":{"streetId":"ST-007","usrn":"44301971","name":"CLEWERS HILL","village":"Waltham Chase"},"geometry":{"type":"MultiLineString","coordinates":[[[-1.20492,50.9391],[-1.20263,50.94102],[-1.20246,50.94109]],[[-1.20662,50.93577],[-1.20661,50.93731],[-1.20625,50.93795]],[[-1.20574,50.9384],[-1.20492,50.9391]],[[-1.20625,50.93795],[-1.20574,50.9384]]]}},{"type":"Feature","properties":{"streetId":"ST-015","usrn":"44302383","name":"PARADISE LANE","village":"Waltham Chase"},"geometry":{"type":"MultiLineString","coordinates":[[[-1.20326,50.94616],[-1.20276,50.94639],[-1.20175,50.94651],[-1.19851,50.94618],[-1.19712,50.94633],[-1.19663,50.94631]],[[-1.19293,50.94741],[-1.19275,50.94821],[-1.19216,50.94901]],[[-1.19397,50.94644],[-1.19321,50.94702],[-1.19293,50.94741]],[[-1.19611,50.94627],[-1.19538,50.94624],[-1.19455,50.94638]],[[-1.19663,50.94631],[-1.19611,50.94627]],[[-1.19444,50.94639],[-1.19397,50.94644]],[[-1.2036,50.94608],[-1.20326,50.94616]],[[-1.19455,50.94638],[-1.19444,50.94639]]]}},{"type":"Feature","properties":{"streetId":"ST-055","usrn":"44304631","name":"TURKEY ISLAND","village":"Shedfield"},"geometry":{"type":"MultiLineString","coordinates":[[[-1.1966,50.91512],[-1.196,50.9158],[-1.19556,50.9161]],[[-1.19482,50.91354],[-1.19454,50.91379],[-1.19388,50.91419]],[[-1.19388,50.91419],[-1.19345,50.91436],[-1.19311,50.91467]],[[-1.19482,50.91354],[-1.19545,50.91363],[-1.19567,50.91345]],[[-1.19484,50.91627],[-1.19427,50.91581]],[[-1.19556,50.9161],[-1.19539,50.91619],[-1.19484,50.91627]],[[-1.19484,50.9132],[-1.19474,50.91326],[-1.19482,50.91354]],[[-1.19484,50.91627],[-1.19463,50.91642]],[[-1.19427,50.91581],[-1.19416,50.91583]]]}},{"type":"Feature","properties":{"streetId":"ST-050","usrn":"44303185","name":"LITTLE BULL LANE","village":"Waltham Chase"},"geometry":{"type":"MultiLineString","coordinates":[[[-1.2061,50.92733],[-1.20609,50.92765],[-1.2063,50.9281],[-1.20628,50.92824],[-1.20432,50.931]],[[-1.20432,50.931],[-1.20389,50.93162]]]}},{"type":"Feature","properties":{"streetId":"ST-066","usrn":"44305820","name":"EDWARDS CLOSE","village":"Shedfield"},"geometry":{"type":"MultiLineString","coordinates":[[[-1.20594,50.915],[-1.2064,50.91561]]]}},{"type":"Feature","properties":{"streetId":"ST-034","usrn":"44302727","name":"BULL LANE","village":"Waltham Chase"},"geometry":{"type":"MultiLineString","coordinates":[[[-1.20389,50.93162],[-1.20513,50.9324]],[[-1.20618,50.93305],[-1.20513,50.9324]],[[-1.20302,50.9316],[-1.20389,50.93162]],[[-1.20679,50.93343],[-1.20618,50.93305]],[[-1.20111,50.93158],[-1.20174,50.93158]],[[-1.20196,50.93159],[-1.20249,50.9316]],[[-1.20249,50.9316],[-1.20302,50.9316]],[[-1.20174,50.93158],[-1.20196,50.93159]]]}},{"type":"Feature","properties":{"streetId":"ST-076","usrn":"44306002","name":"BEECH CLOSE","village":"Waltham Chase"},"geometry":{"type":"MultiLineString","coordinates":[[[-1.19668,50.93331],[-1.19704,50.93342],[-1.19754,50.93344]]]}},{"type":"Feature","properties":{"streetId":"ST-074","usrn":"44306000","name":"HORNBEAM ROAD","village":"Waltham Chase"},"geometry":{"type":"MultiLineString","coordinates":[[[-1.19668,50.93331],[-1.197,50.9327],[-1.19767,50.93271]],[[-1.19636,50.93386],[-1.19646,50.93355],[-1.19668,50.93331]],[[-1.19622,50.93425],[-1.19636,50.93386]],[[-1.19645,50.9346],[-1.19643,50.93447],[-1.19622,50.93425]],[[-1.19636,50.93481],[-1.19645,50.9346]]]}},{"type":"Feature","properties":{"streetId":"ST-025","usrn":"44302452","name":"ST JOHNS LANE","village":"Shedfield"},"geometry":{"type":"MultiLineString","coordinates":[[[-1.20289,50.91711],[-1.20217,50.91662]],[[-1.20192,50.91645],[-1.20159,50.91623]],[[-1.20217,50.91662],[-1.20192,50.91645]]]}},{"type":"Feature","properties":{"streetId":"ST-028","usrn":"44302455","name":"SLOANE PARK","village":"Shedfield"},"geometry":{"type":"MultiLineString","coordinates":[[[-1.20521,50.91448],[-1.20577,50.91505]]]}},{"type":"Feature","properties":{"streetId":"ST-040","usrn":"44302873","name":"PROVENE GARDENS","village":"Waltham Chase"},"geometry":{"type":"MultiLineString","coordinates":[[[-1.20238,50.93672],[-1.20369,50.93681],[-1.20378,50.9369],[-1.20386,50.93729]],[[-1.20239,50.93566],[-1.20238,50.93672]],[[-1.20519,50.93744],[-1.2051,50.93795],[-1.20517,50.9381]],[[-1.20431,50.93742],[-1.20519,50.93744]],[[-1.20594,50.93749],[-1.20519,50.93744]],[[-1.20386,50.93729],[-1.20431,50.93742]],[[-1.20517,50.9381],[-1.20557,50.93806]],[[-1.20557,50.93806],[-1.20574,50.93794]]]}},{"type":"Feature","properties":{"streetId":"ST-022","usrn":"44302449","name":"GAMBLINS LANE","village":"Shirrell Heath"},"geometry":{"type":"MultiLineString","coordinates":[[[-1.19362,50.91901],[-1.19423,50.91937]],[[-1.1946,50.91955],[-1.19509,50.9198]],[[-1.19434,50.91942],[-1.1946,50.91955]],[[-1.19423,50.91937],[-1.19434,50.91942]]]}},{"type":"Feature","properties":{"streetId":"ST-010","usrn":"44301974","name":"MEADOW CLOSE","village":"Waltham Chase"},"geometry":{"type":"MultiLineString","coordinates":[[[-1.20357,50.93797],[-1.20382,50.93793],[-1.20413,50.938]]]}},{"type":"Feature","properties":{"streetId":"ST-038","usrn":"44302773","name":"FOREST ROAD","village":"Waltham Chase"},"geometry":{"type":"MultiLineString","coordinates":[[[-1.19781,50.93505],[-1.19636,50.93481]],[[-1.20095,50.93556],[-1.19978,50.93537]],[[-1.19636,50.93481],[-1.19539,50.93465]],[[-1.19964,50.93535],[-1.19897,50.93524]],[[-1.1986,50.93518],[-1.19813,50.93511]],[[-1.19813,50.93511],[-1.19781,50.93505]],[[-1.19891,50.93524],[-1.1986,50.93518]],[[-1.19978,50.93537],[-1.19964,50.93535]],[[-1.19897,50.93524],[-1.19891,50.93524]]]}},{"type":"Feature","properties":{"streetId":"ST-008","usrn":"44301972","name":"SANDY LANE","village":"Shedfield"},"geometry":{"type":"MultiLineString","coordinates":[[[-1.21687,50.92465],[-1.2163,50.92418],[-1.21593,50.92347],[-1.21561,50.92315],[-1.21375,50.92198]],[[-1.21269,50.92885],[-1.21279,50.92841],[-1.21338,50.92717],[-1.21355,50.927],[-1.21509,50.92614]],[[-1.21332,50.91996],[-1.21446,50.91951],[-1.21466,50.91933],[-1.21491,50.91787]],[[-1.21509,50.92614],[-1.21687,50.92525],[-1.21711,50.92501]],[[-1.21341,50.92149],[-1.21317,50.92083],[-1.21323,50.92041]],[[-1.21369,50.92193],[-1.21341,50.92149]],[[-1.21323,50.92041],[-1.21332,50.91996]],[[-1.21711,50.92501],[-1.21687,50.92465]],[[-1.21375,50.92198],[-1.21369,50.92193]]]}},{"type":"Feature","properties":{"streetId":"ST-061","usrn":"44305374","name":"SOLOMONS LANE","village":"Waltham Chase"},"geometry":{"type":"MultiLineString","coordinates":[[[-1.19822,50.92828],[-1.19581,50.92728],[-1.19521,50.92713],[-1.19442,50.92704]],[[-1.2013,50.92825],[-1.19915,50.92832]],[[-1.19898,50.92832],[-1.19856,50.92834]],[[-1.19856,50.92834],[-1.19839,50.92832]],[[-1.19915,50.92832],[-1.19898,50.92832]],[[-1.19839,50.92832],[-1.19822,50.92828]]]}},{"type":"Feature","properties":{"streetId":"ST-024","usrn":"44302451","name":"PRICKETTS HILL","village":"Shedfield"},"geometry":{"type":"MultiLineString","coordinates":[[[-1.19187,50.91319],[-1.19142,50.9123],[-1.19071,50.91169],[-1.18996,50.91082],[-1.18934,50.91049]],[[-1.1884,50.90998],[-1.18804,50.90971],[-1.18762,50.90924],[-1.187,50.90896]],[[-1.19416,50.91583],[-1.19311,50.91467]],[[-1.19269,50.91422],[-1.19187,50.91319]],[[-1.19545,50.9174],[-1.19463,50.91642]],[[-1.18934,50.91049],[-1.1884,50.90998]],[[-1.19463,50.91642],[-1.19416,50.91583]],[[-1.19311,50.91467],[-1.19269,50.91422]]]}},{"type":"Feature","properties":{"streetId":"ST-046","usrn":"44303129","name":"FOREST GARDENS","village":"Waltham Chase"},"geometry":{"type":"MultiLineString","coordinates":[[[-1.19949,50.93569],[-1.19949,50.9359],[-1.19969,50.93589],[-1.19974,50.93579],[-1.19949,50.93569]],[[-1.19964,50.93535],[-1.19949,50.93569]]]}},{"type":"Feature","properties":{"streetId":"ST-052","usrn":"44303568","name":"CULVERLANDS CLOSE","village":"Shedfield"},"geometry":{"type":"MultiLineString","coordinates":[[[-1.19908,50.91362],[-1.19869,50.91386]]]}},{"type":"Feature","properties":{"streetId":"ST-026","usrn":"44302453","name":"CANFORD CLOSE","village":"Shedfield"},"geometry":{"type":"MultiLineString","coordinates":[[[-1.20379,50.91564],[-1.20343,50.91507]]]}},{"type":"Feature","properties":{"streetId":"ST-047","usrn":"44303130","name":"FOREST CLOSE","village":"Waltham Chase"},"geometry":{"type":"MultiLineString","coordinates":[[[-1.20102,50.93366],[-1.19852,50.93362],[-1.19834,50.93368],[-1.1982,50.93381],[-1.19781,50.93505]]]}},{"type":"Feature","properties":{"streetId":"ST-054","usrn":"44303598","name":"BROOKLYNN CLOSE FOOTPATH","village":"Waltham Chase"},"geometry":{"type":"MultiLineString","coordinates":[[[-1.20218,50.93008],[-1.20127,50.93022]],[[-1.2043,50.93099],[-1.20411,50.93069]]]}},{"type":"Feature","properties":{"streetId":"ST-070","usrn":"44305989","name":"PHILLIMORE GARDENS","village":"Shedfield"},"geometry":{"type":"MultiLineString","coordinates":[[[-1.19846,50.91349],[-1.19782,50.91323]],[[-1.19823,50.91372],[-1.19846,50.91349]],[[-1.19846,50.91349],[-1.19866,50.91328]]]}},{"type":"Feature","properties":{"streetId":"ST-041","usrn":"44302924","name":"THE RIDINGS","village":"Waltham Chase"},"geometry":{"type":"MultiLineString","coordinates":[[[-1.19962,50.9372],[-1.20094,50.93706]],[[-1.19969,50.93786],[-1.19962,50.9372]],[[-1.19962,50.9372],[-1.19968,50.93668]],[[-1.19969,50.93786],[-1.19994,50.93793]],[[-1.19949,50.93796],[-1.19969,50.93786]]]}},{"type":"Feature","properties":{"streetId":"ST-011","usrn":"44301975","name":"PROVENE CLOSE","village":"Waltham Chase"},"geometry":{"type":"MultiLineString","coordinates":[[[-1.20238,50.93672],[-1.20231,50.93715],[-1.20245,50.93766],[-1.20244,50.93797]]]}},{"type":"Feature","properties":{"streetId":"ST-060","usrn":"44305354","name":"LOWER CHASE ROAD","village":"Waltham Chase"},"geometry":{"type":"MultiLineString","coordinates":[[[-1.19667,50.93933],[-1.19895,50.9391]],[[-1.19411,50.94031],[-1.19555,50.93947]],[[-1.19984,50.939],[-1.20149,50.93883]],[[-1.19895,50.9391],[-1.19984,50.939]],[[-1.19555,50.93947],[-1.19614,50.93939]],[[-1.19614,50.93939],[-1.19667,50.93933]]]}},{"type":"Feature","properties":{"streetId":"ST-018","usrn":"44302445","name":"HOSPITAL ROAD","village":"Shirrell Heath"},"geometry":{"type":"MultiLineString","coordinates":[[[-1.18004,50.92012],[-1.17872,50.91902]],[[-1.18378,50.92334],[-1.18255,50.9223]],[[-1.18167,50.92153],[-1.18057,50.92059]],[[-1.18601,50.92527],[-1.18502,50.92441]],[[-1.18476,50.92417],[-1.18378,50.92334]],[[-1.18255,50.9223],[-1.18193,50.92175]],[[-1.18057,50.92059],[-1.18004,50.92012]],[[-1.18634,50.92556],[-1.18601,50.92527]],[[-1.18502,50.92441],[-1.18476,50.92417]],[[-1.18193,50.92175],[-1.18167,50.92153]]]}},{"type":"Feature","properties":{"streetId":"ST-006","usrn":"44301964","name":"NEW PLACE","village":"Shedfield"},"geometry":{"type":"MultiLineString","coordinates":[[[-1.19423,50.91938],[-1.19463,50.91912]]]}}]}
